STARLINK-36179          
1 67119U 25299T   26081.48248837  .00016892  00000+0  62213-3 0  9994
2 67119  43.0016  96.6705 0001657 282.9323  77.1344 15.27570213 15073
STARLINK-36217          
1 67120U 25299U   26081.51203906  .00022793  00000+0  83443-3 0  9993
2 67120  43.0007  96.8888 0001866 255.1387 104.9258 15.27611655 15072
STARLINK-36124          
1 67121U 25299V   26081.75947052  .00019740  00000+0  72620-3 0  9990
2 67121  43.0033  95.3069 0000168 289.5158  70.5675 15.27522268 15115
STARLINK-36188          
1 67122U 25299W   26082.25001157 -.00006813  00000+0 -23830-3 0  9992
2 67122  43.0017  92.6418 0001667 271.9985 226.4645 15.27574567  5896
STARLINK-36151          
1 67123U 25299X   26081.40938240  .00021681  00000+0  79469-3 0  9998
2 67123  42.9978  96.9786 0001518 270.1754  89.8924 15.27595816 15067
STARLINK-36195          
1 67124U 25299Y   26082.30295621  .00022776  00000+0  83320-3 0  9995
2 67124  42.9981  91.6427 0001712 249.0645 111.0024 15.27636388 15201
STARLINK-36219          
1 67125U 25299Z   26081.74916640  .00026946  00000+0  98520-3 0  9995
2 67125  43.0012  95.2233 0001490 257.4514 102.6171 15.27578446 15114
STARLINK-36223          
1 67126U 25299AA  26081.74145931  .00027495  00000+0  10052-2 0  9996
2 67126  43.0017  95.1642 0000625 276.4077  83.6704 15.27573435 15110
STARLINK-36164          
1 67127U 25299AB  26081.72732172  .00016554  00000+0  60988-3 0  9992
2 67127  42.9984  95.0550 0000856 275.2809  84.7945 15.27572032 15116
STARLINK-35685          
1 67128U 25299AC  26081.40295919  .00035986  00000+0  13094-2 0  9996
2 67128  43.0046  96.9319 0001728 271.0373  89.0281 15.27615467 15065
STARLINK-36214          
1 67129U 25299AD  26081.44921277  .00020423  00000+0  74893-3 0  9999
2 67129  43.0000  97.2725 0001666 254.6912 105.3756 15.27609321 15069
STARLINK-36194          
1 67130U 25299AE  26081.74531575  .00030344  00000+0  11076-2 0  9998
2 67130  43.0021  95.1959 0000680 328.3602  31.7209 15.27583206 15114
STARLINK-36182          
1 67192U 25304A   26081.56802435 -.00075096  00000+0 -63432-2 0  9997
2 67192  70.0019 141.9952 0003177 256.1166 103.9640 14.98392083 15781
STARLINK-36279          
1 67193U 25304B   26082.25001157 -.00030650  00000+0 -25703-2 0  9993
2 67193  69.9998 140.2480 0003441 272.7362 187.3552 14.98357799  5770
STARLINK-36284          
1 67194U 25304C   26082.18557113  .00003571  00000+0  30686-3 0  9991
2 67194  70.0001 140.5385 0004837 269.3095  90.7509 14.98331116 15901
STARLINK-36291          
1 67195U 25304D   26082.20243263  .00004534  00000+0  38754-3 0  9997
2 67195  70.0007 140.5941 0003761 267.6250  92.4478 14.98331326 15902
