[{"OBJECT_NAME":"STARLINK-36179","OBJECT_ID":"2025-299T","EPOCH":"2026-03-22T11:34:46.995168","MEAN_MOTION":15.27570213,"ECCENTRICITY":0.00016572,"INCLINATION":43.0016,"RA_OF_ASC_NODE":96.6705,"ARG_OF_PERICENTER":282.9323,"MEAN_ANOMALY":77.1344,"EPHEMERIS_TYPE":0,"CLASSIFICATION_TYPE":"U","NORAD_CAT_ID":67119,"ELEMENT_SET_NO":999,"REV_AT_EPOCH":1507,"BSTAR":0.00062213427,"MEAN_MOTION_DOT":0.00016892,"MEAN_MOTION_DDOT":0},{"OBJECT_NAME":"STARLINK-36217","OBJECT_ID":"2025-299U","EPOCH":"2026-03-22T12:17:20.174784","MEAN_MOTION":15.27611655,"ECCENTRICITY":0.00018667,"INCLINATION":43.0007,"RA_OF_ASC_NODE":96.8888,"ARG_OF_PERICENTER":255.1387,"MEAN_ANOMALY":104.9258,"EPHEMERIS_TYPE":0,"CLASSIFICATION_TYPE":"U","NORAD_CAT_ID":67120,"ELEMENT_SET_NO":999,"REV_AT_EPOCH":1507,"BSTAR":0.00083443076,"MEAN_MOTION_DOT":0.00022793,"MEAN_MOTION_DDOT":0},{"OBJECT_NAME":"STARLINK-36124","OBJECT_ID":"2025-299V","EPOCH":"2026-03-22T18:13:38.252928","MEAN_MOTION":15.27522268,"ECCENTRICITY":1.687e-5,"INCLINATION":43.0033,"RA_OF_ASC_NODE":95.3069,"ARG_OF_PERICENTER":289.5158,"MEAN_ANOMALY":70.5675,"EPHEMERIS_TYPE":0,"CLASSIFICATION_TYPE":"U","NORAD_CAT_ID":67121,"ELEMENT_SET_NO":999,"REV_AT_EPOCH":1511,"BSTAR":0.00072620125,"MEAN_MOTION_DOT":0.0001974,"MEAN_MOTION_DDOT":0},{"OBJECT_NAME":"STARLINK-36188","OBJECT_ID":"2025-299W","EPOCH":"2026-03-23T06:00:00.999648","MEAN_MOTION":15.27574567,"ECCENTRICITY":0.00016674,"INCLINATION":43.0017,"RA_OF_ASC_NODE":92.6418,"ARG_OF_PERICENTER":271.9985,"MEAN_ANOMALY":226.4645,"EPHEMERIS_TYPE":0,"CLASSIFICATION_TYPE":"U","NORAD_CAT_ID":67122,"ELEMENT_SET_NO":999,"REV_AT_EPOCH":589,"BSTAR":-0.00023829762,"MEAN_MOTION_DOT":-6.813e-5,"MEAN_MOTION_DDOT":0},{"OBJECT_NAME":"STARLINK-36151","OBJECT_ID":"2025-299X","EPOCH":"2026-03-22T09:49:30.639360","MEAN_MOTION":15.27595816,"ECCENTRICITY":0.00015186,"INCLINATION":42.9978,"RA_OF_ASC_NODE":96.9786,"ARG_OF_PERICENTER":270.1754,"MEAN_ANOMALY":89.8924,"EPHEMERIS_TYPE":0,"CLASSIFICATION_TYPE":"U","NORAD_CAT_ID":67123,"ELEMENT_SET_NO":999,"REV_AT_EPOCH":1506,"BSTAR":0.00079469001,"MEAN_MOTION_DOT":0.00021681,"MEAN_MOTION_DDOT":0},{"OBJECT_NAME":"STARLINK-36195","OBJECT_ID":"2025-299Y","EPOCH":"2026-03-23T07:16:15.416544","MEAN_MOTION":15.27636388,"ECCENTRICITY":0.00017127,"INCLINATION":42.9981,"RA_OF_ASC_NODE":91.6427,"ARG_OF_PERICENTER":249.0645,"MEAN_ANOMALY":111.0024,"EPHEMERIS_TYPE":0,"CLASSIFICATION_TYPE":"U","NORAD_CAT_ID":67124,"ELEMENT_SET_NO":999,"REV_AT_EPOCH":1520,"BSTAR":0.00083320242,"MEAN_MOTION_DOT":0.00022776,"MEAN_MOTION_DDOT":0},{"OBJECT_NAME":"STARLINK-36219","OBJECT_ID":"2025-299Z","EPOCH":"2026-03-22T17:58:47.976960","MEAN_MOTION":15.27578446,"ECCENTRICITY":0.00014905,"INCLINATION":43.0012,"RA_OF_ASC_NODE":95.2233,"ARG_OF_PERICENTER":257.4514,"MEAN_ANOMALY":102.6171,"EPHEMERIS_TYPE":0,"CLASSIFICATION_TYPE":"U","NORAD_CAT_ID":67125,"ELEMENT_SET_NO":999,"REV_AT_EPOCH":1511,"BSTAR":0.00098520355,"MEAN_MOTION_DOT":0.00026946,"MEAN_MOTION_DDOT":0},{"OBJECT_NAME":"STARLINK-36223","OBJECT_ID":"2025-299AA","EPOCH":"2026-03-22T17:47:42.084384","MEAN_MOTION":15.27573435,"ECCENTRICITY":6.256e-5,"INCLINATION":43.0017,"RA_OF_ASC_NODE":95.1642,"ARG_OF_PERICENTER":276.4077,"MEAN_ANOMALY":83.6704,"EPHEMERIS_TYPE":0,"CLASSIFICATION_TYPE":"U","NORAD_CAT_ID":67126,"ELEMENT_SET_NO":999,"REV_AT_EPOCH":1511,"BSTAR":0.0010051517,"MEAN_MOTION_DOT":0.00027495,"MEAN_MOTION_DDOT":0},{"OBJECT_NAME":"STARLINK-36164","OBJECT_ID":"2025-299AB","EPOCH":"2026-03-22T17:27:20.596608","MEAN_MOTION":15.27572032,"ECCENTRICITY":8.568e-5,"INCLINATION":42.9984,"RA_OF_ASC_NODE":95.055,"ARG_OF_PERICENTER":275.2809,"MEAN_ANOMALY":84.7945,"EPHEMERIS_TYPE":0,"CLASSIFICATION_TYPE":"U","NORAD_CAT_ID":67127,"ELEMENT_SET_NO":999,"REV_AT_EPOCH":1511,"BSTAR":0.0006098823,"MEAN_MOTION_DOT":0.00016554,"MEAN_MOTION_DDOT":0},{"OBJECT_NAME":"STARLINK-35685","OBJECT_ID":"2025-299AC","EPOCH":"2026-03-22T09:40:15.674016","MEAN_MOTION":15.27615467,"ECCENTRICITY":0.00017281,"INCLINATION":43.0046,"RA_OF_ASC_NODE":96.9319,"ARG_OF_PERICENTER":271.0373,"MEAN_ANOMALY":89.0281,"EPHEMERIS_TYPE":0,"CLASSIFICATION_TYPE":"U","NORAD_CAT_ID":67128,"ELEMENT_SET_NO":999,"REV_AT_EPOCH":1506,"BSTAR":0.0013094434,"MEAN_MOTION_DOT":0.00035986,"MEAN_MOTION_DDOT":0},{"OBJECT_NAME":"STARLINK-36214","OBJECT_ID":"2025-299AD","EPOCH":"2026-03-22T10:46:51.983328","MEAN_MOTION":15.27609321,"ECCENTRICITY":0.00016664,"INCLINATION":43,"RA_OF_ASC_NODE":97.2725,"ARG_OF_PERICENTER":254.6912,"MEAN_ANOMALY":105.3756,"EPHEMERIS_TYPE":0,"CLASSIFICATION_TYPE":"U","NORAD_CAT_ID":67129,"ELEMENT_SET_NO":999,"REV_AT_EPOCH":1506,"BSTAR":0.0007489333,"MEAN_MOTION_DOT":0.00020423,"MEAN_MOTION_DDOT":0},{"OBJECT_NAME":"STARLINK-36194","OBJECT_ID":"2025-299AE","EPOCH":"2026-03-22T17:53:15.280800","MEAN_MOTION":15.27583206,"ECCENTRICITY":6.809e-5,"INCLINATION":43.0021,"RA_OF_ASC_NODE":95.1959,"ARG_OF_PERICENTER":328.3602,"MEAN_ANOMALY":31.7209,"EPHEMERIS_TYPE":0,"CLASSIFICATION_TYPE":"U","NORAD_CAT_ID":67130,"ELEMENT_SET_NO":999,"REV_AT_EPOCH":1511,"BSTAR":0.0011075795,"MEAN_MOTION_DOT":0.00030344,"MEAN_MOTION_DDOT":0},{"OBJECT_NAME":"STARLINK-36182","OBJECT_ID":"2025-304A","EPOCH":"2026-03-22T13:37:57.303840","MEAN_MOTION":14.98392083,"ECCENTRICITY":0.0003177,"INCLINATION":70.0019,"RA_OF_ASC_NODE":141.9952,"ARG_OF_PERICENTER":256.1166,"MEAN_ANOMALY":103.964,"EPHEMERIS_TYPE":0,"CLASSIFICATION_TYPE":"U","NORAD_CAT_ID":67192,"ELEMENT_SET_NO":999,"REV_AT_EPOCH":1578,"BSTAR":-0.0063432265,"MEAN_MOTION_DOT":-0.00075096,"MEAN_MOTION_DDOT":0},{"OBJECT_NAME":"STARLINK-36279","OBJECT_ID":"2025-304B","EPOCH":"2026-03-23T06:00:00.999648","MEAN_MOTION":14.98357799,"ECCENTRICITY":0.0003441,"INCLINATION":69.9998,"RA_OF_ASC_NODE":140.248,"ARG_OF_PERICENTER":272.7362,"MEAN_ANOMALY":187.3552,"EPHEMERIS_TYPE":0,"CLASSIFICATION_TYPE":"U","NORAD_CAT_ID":67193,"ELEMENT_SET_NO":999,"REV_AT_EPOCH":577,"BSTAR":-0.0025702724,"MEAN_MOTION_DOT":-0.0003065,"MEAN_MOTION_DDOT":0},{"OBJECT_NAME":"STARLINK-36284","OBJECT_ID":"2025-304C","EPOCH":"2026-03-23T04:27:13.345632","MEAN_MOTION":14.98331116,"ECCENTRICITY":0.00048379,"INCLINATION":70.0001,"RA_OF_ASC_NODE":140.5385,"ARG_OF_PERICENTER":269.3095,"MEAN_ANOMALY":90.7509,"EPHEMERIS_TYPE":0,"CLASSIFICATION_TYPE":"U","NORAD_CAT_ID":67194,"ELEMENT_SET_NO":999,"REV_AT_EPOCH":1590,"BSTAR":0.00030686411,"MEAN_MOTION_DOT":3.571e-5,"MEAN_MOTION_DDOT":0},{"OBJECT_NAME":"STARLINK-36291","OBJECT_ID":"2025-304D","EPOCH":"2026-03-23T04:51:30.179232","MEAN_MOTION":14.98331326,"ECCENTRICITY":0.00037612,"INCLINATION":70.0007,"RA_OF_ASC_NODE":140.5941,"ARG_OF_PERICENTER":267.625,"MEAN_ANOMALY":92.4478,"EPHEMERIS_TYPE":0,"CLASSIFICATION_TYPE":"U","NORAD_CAT_ID":67195,"ELEMENT_SET_NO":999,"REV_AT_EPOCH":1590,"BSTAR":0.0003875415,"MEAN_MOTION_DOT":4.534e-5,"MEAN_MOTION_DDOT":0}]
